NORAD_CAT_ID,OBJECT_NAME,OBJECT_TYPE,EPOCH,MEAN_MOTION,ECCENTRICITY,INCLINATION,RA_OF_ASC_NODE,ARG_OF_PERICENTER,MEAN_ANOMALY,BSTAR,MEAN_MOTION_DOT,MEAN_MOTION_DDOT,TLE_LINE0,TLE_LINE1,TLE_LINE2,SEMIMAJOR_AXIS,PERIOD,APOGEE,PERIGEE,DECAYED
53434.0,STARLINK-4498,PAYLOAD,2023-03-08 04:43:55,15.08877334,0.0001796,53.2172,350.6848,67.1441,292.974,0.0021591,0.00034277,0.0,0 STARLINK-4498,1 53434U 22097AY  23067.19716764  .00034277  00000-0  21591-2 0  9991,2 53434  53.2172 350.6848 0001796  67.1441 292.9740 15.08877334 32623,6917.766,95.435,540.874,538.389,0.0
53434.0,STARLINK-4498,PAYLOAD,2023-03-08 19:02:23,15.0884405,0.0002054,53.2157,348.008,74.289,285.8328,0.0015279,0.00024115,0.0,0 STARLINK-4498,1 53434U 22097AY  23067.79333280  .00024115  00000-0  15279-2 0  9991,2 53434  53.2157 348.0080 0002054  74.2890 285.8328 15.08844050 33207,6917.868,95.437,541.154,538.312,0.0
53434.0,STARLINK-4498,PAYLOAD,2023-03-08 23:48:33,15.08857513,0.0001572,53.2162,347.1161,82.8979,277.2192,0.0015988,0.00025261,0.0,0 STARLINK-4498,1 53434U 22097AY  23067.99205080  .00025261  00000-0  15988-2 0  9999,2 53434  53.2162 347.1161 0001572  82.8979 277.2192 15.08857513 32740,6917.827,95.436,540.779,538.604,0.0
53434.0,STARLINK-4498,PAYLOAD,2023-03-09 18:53:10,15.08858242,0.0001702,53.2164,343.5487,81.8268,278.2917,0.0015511,0.00024496,0.0,0 STARLINK-4498,1 53434U 22097AY  23068.78693262  .00024496  00000-0  15511-2 0  9991,2 53434  53.2164 343.5487 0001702  81.8268 278.2917 15.08858242 32867,6917.825,95.436,540.867,538.512,0.0
53434.0,STARLINK-4498,PAYLOAD,2023-03-09 22:03:57,15.08857032,0.0001442,53.2164,342.9541,93.4202,266.6955,0.0014122,0.00022269,0.0,0 STARLINK-4498,1 53434U 22097AY  23068.91941105  .00022269  00000-0  14122-2 0  9991,2 53434  53.2164 342.9541 0001442  93.4202 266.6955 15.08857032 33375,6917.828,95.436,540.691,538.696,0.0
53434.0,STARLINK-4498,PAYLOAD,2023-03-10 10:47:01,15.08863082,0.0001548,53.2162,340.5754,59.9288,300.1858,0.0010016,0.00015698,0.0,0 STARLINK-4498,1 53434U 22097AY  23069.44932709  .00015698  00000-0  10016-2 0  9996,2 53434  53.2162 340.5754 0001548  59.9288 300.1858 15.08863082 32963,6917.81,95.436,540.746,538.604,0.0
53434.0,STARLINK-4498,PAYLOAD,2023-03-10 17:08:35,15.08833969,0.0003177,53.2158,339.3867,67.7346,292.3983,0.00064772,0.00010034,0.0,0 STARLINK-4498,1 53434U 22097AY  23069.71429752  .00010034  00000-0  64772-3 0  9993,2 53434  53.2158 339.3867 0003177  67.7346 292.3983 15.08833969 33009,6917.899,95.438,541.962,537.566,0.0
53434.0,STARLINK-4498,PAYLOAD,2023-03-11 02:40:54,15.08830277,0.0001576,53.2161,337.6028,61.1883,298.9267,0.0026123,0.00041521,0.0,0 STARLINK-4498,1 53434U 22097AY  23070.11174145  .00041521  00000-0  26123-2 0  9994,2 53434  53.2161 337.6028 0001576  61.1883 298.9267 15.08830277 33554,6917.91,95.438,540.865,538.685,0.0
53434.0,STARLINK-4498,PAYLOAD,2023-03-12 02:31:41,15.08871344,0.000215,53.2147,333.141,65.7357,294.386,0.0021437,0.00034024,0.0,0 STARLINK-4498,1 53434U 22097AY  23071.10534357  .00034024  00000-0  21437-2 0  9992,2 53434  53.2147 333.1410 0002150  65.7357 294.3860 15.08871344 33211,6917.785,95.436,541.137,538.162,0.0
53434.0,STARLINK-4498,PAYLOAD,2023-03-13 02:22:27,15.08891171,0.0001486,53.215,328.6789,81.0231,279.0929,0.0022371,0.00035545,0.0,0 STARLINK-4498,1 53434U 22097AY  23072.09893106  .00035545  00000-0  22371-2 0  9998,2 53434  53.2150 328.6789 0001486  81.0231 279.0929 15.08891171 33368,6917.724,95.434,540.617,538.561,0.0
53434.0,STARLINK-4498,PAYLOAD,2023-03-13 21:27:06,15.08823712,7.58e-05,53.2158,325.1099,54.2147,305.8916,0.0010239,0.00016038,0.0,0 STARLINK-4498,1 53434U 22097AY  23072.89382427  .00016038  00000-0  10239-2 0  9991,2 53434  53.2158 325.1099 0000758  54.2147 305.8916 15.08823712 33484,6917.93,95.439,540.32,539.271,0.0
53434.0,STARLINK-4498,PAYLOAD,2023-03-14 02:13:16,15.08823774,0.0001048,53.2159,324.2169,72.0727,288.0379,0.0010679,0.00016741,0.0,0 STARLINK-4498,1 53434U 22097AY  23073.09254793  .00016741  00000-0  10679-2 0  9997,2 53434  53.2159 324.2169 0001048  72.0727 288.0379 15.08823774 34000,6917.93,95.439,540.52,539.07,0.0
53434.0,STARLINK-4498,PAYLOAD,2023-03-15 02:04:01,15.08904337,0.0001242,53.2158,319.7575,57.6029,302.5084,0.0024597,0.00039145,0.0,0 STARLINK-4498,1 53434U 22097AY  23074.08613105  .00039145  00000-0  24597-2 0  9990,2 53434  53.2158 319.7575 0001242  57.6029 302.5084 15.08904337 33660,6917.684,95.433,540.408,538.69,0.0
53434.0,STARLINK-4498,PAYLOAD,2023-03-15 22:44:02,15.08853741,0.0001192,53.2165,315.8923,85.5919,274.5209,0.0016336,0.00025816,0.0,0 STARLINK-4498,1 53434U 22097AY  23074.94725373  .00025816  00000-0  16336-2 0  9998,2 53434  53.2165 315.8923 0001192  85.5919 274.5209 15.08853741 34282,6917.838,95.437,540.528,538.879,0.0
53434.0,STARLINK-4498,PAYLOAD,2023-03-16 05:05:35,15.08811555,0.0001328,53.215,314.7029,63.1332,296.9796,0.00056672,8.736e-05,0.0,0 STARLINK-4498,1 53434U 22097AY  23075.21221847  .00008736  00000-0  56672-3 0  9996,2 53434  53.2150 314.7029 0001328  63.1332 296.9796 15.08811555 33839,6917.967,95.439,540.751,538.914,0.0
53434.0,STARLINK-4498,PAYLOAD,2023-03-16 22:34:49,15.08853116,0.0001099,53.2146,311.4323,105.781,254.3304,0.0011085,0.00017404,0.0,0 STARLINK-4498,1 53434U 22097AY  23075.94085284  .00017404  00000-0  11085-2 0  9999,2 53434  53.2146 311.4323 0001099 105.7810 254.3304 15.08853116 34433,6917.84,95.437,540.466,538.945,0.0
53434.0,STARLINK-4498,PAYLOAD,2023-03-17 00:10:12,15.08859553,0.0001237,53.2155,311.1345,104.7955,255.3174,0.0014107,0.00022247,0.0,0 STARLINK-4498,1 53434U 22097AY  23076.00709179  .00022247  00000-0  14107-2 0  9992,2 53434  53.2155 311.1345 0001237 104.7955 255.3174 15.08859553 33950,6917.821,95.436,540.541,538.83,0.0
53434.0,STARLINK-4498,PAYLOAD,2023-03-17 08:07:08,15.08848247,0.0002031,53.2143,309.6467,85.0856,275.0367,0.00061194,9.467e-05,0.0,0 STARLINK-4498,1 53434U 22097AY  23076.33829556  .00009467  00000-0  61194-3 0  9998,2 53434  53.2143 309.6467 0002031  85.0856 275.0367 15.08848247 34006,6917.855,95.437,541.125,538.315,0.0
53434.0,STARLINK-4498,PAYLOAD,2023-03-18 00:01:00,15.08826462,0.0001568,53.2165,306.6764,102.2077,257.9091,-9.0687e-05,-1.73e-05,0.0,0 STARLINK-4498,1 53434U 22097AY  23077.00070173 -.00001730  00000-0 -90687-4 0  9993,2 53434  53.2165 306.6764 0001568 102.2077 257.9091 15.08826462 34107,6917.922,95.438,540.871,538.702,0.0
53434.0,STARLINK-4498,PAYLOAD,2023-03-18 20:41:01,15.08846111,0.0001285,53.2146,302.8082,96.7676,263.3463,0.00066824,0.00010365,0.0,0 STARLINK-4498,1 53434U 22097AY  23077.86182266  .00010365  00000-0  66824-3 0  9991,2 53434  53.2146 302.8082 0001285  96.7676 263.3463 15.08846111 34236,6917.862,95.437,540.616,538.838,0.0
53434.0,STARLINK-4498,PAYLOAD,2023-03-18 22:16:24,15.08848535,0.0001142,53.2149,302.5109,97.1444,262.9678,0.00078218,0.00012185,0.0,0 STARLINK-4498,1 53434U 22097AY  23077.92806247  .00012185  00000-0  78218-3 0  9992,2 53434  53.2149 302.5109 0001142  97.1444 262.9678 15.08848535 34736,6917.854,95.437,540.509,538.929,0.0
53434.0,STARLINK-4498,PAYLOAD,2023-03-18 23:51:47,15.08852241,0.0001235,53.2143,302.2133,92.9502,267.1632,0.00086143,0.00013453,0.0,0 STARLINK-4498,1 53434U 22097AY  23077.99430195  .00013453  00000-0  86143-3 0  9999,2 53434  53.2143 302.2133 0001235  92.9502 267.1632 15.08852241 34742,6917.843,95.437,540.562,538.854,0.0
53434.0,STARLINK-4498,PAYLOAD,2023-03-19 20:31:48,15.08852969,0.0001019,53.2139,298.3478,105.1531,254.9574,0.00059097,9.133e-05,0.0,0 STARLINK-4498,1 53434U 22097AY  23078.85541997  .00009133  00000-0  59097-3 0  9996,2 53434  53.2139 298.3478 0001019 105.1531 254.9574 15.08852969 34389,6917.841,95.437,540.411,539.001,0.0
53434.0,STARLINK-4498,PAYLOAD,2023-03-20 07:39:30,15.08818993,9.38e-05,53.2132,296.2659,78.8833,281.2264,-0.00049624,-8.172e-05,0.0,0 STARLINK-4498,1 53434U 22097AY  23079.31910720 -.00008172  00000-0 -49624-3 0  9991,2 53434  53.2132 296.2659 0000938  78.8833 281.2264 15.08818993 34456,6917.945,95.439,540.459,539.161,0.0
53434.0,STARLINK-4498,PAYLOAD,2023-03-20 20:22:37,15.08818176,0.0001641,53.214,293.8858,77.4893,282.6283,-5.9898e-06,-3.83e-06,0.0,0 STARLINK-4498,1 53434U 22097AY  23079.84903998 -.00000383  00000-0 -59898-5 0  9990,2 53434  53.2140 293.8858 0001641  77.4893 282.6283 15.08818176 35025,6917.947,95.439,540.947,538.677,0.0
53434.0,STARLINK-4498,PAYLOAD,2023-03-20 23:33:23,15.08817186,0.000136,53.2138,293.2924,73.7225,286.3916,0.00013051,1.789e-05,0.0,0 STARLINK-4498,1 53434U 22097AY  23079.98152296  .00001789  00000-0  13051-3 0  9990,2 53434  53.2138 293.2924 0001360  73.7225 286.3916 15.08817186 35042,6917.95,95.439,540.756,538.874,0.0
53434.0,STARLINK-4498,PAYLOAD,2023-03-21 20:13:24,15.08865965,0.00014,53.2128,289.4274,63.1263,296.9872,0.001609,0.0002543,0.0,0 STARLINK-4498,1 53434U 22097AY  23080.84264108  .00025430  00000-0  16090-2 0  9997,2 53434  53.2128 289.4274 0001400  63.1263 296.9872 15.08865965 34681,6917.801,95.436,540.635,538.698,0.0
53434.0,STARLINK-4498,PAYLOAD,2023-03-22 20:04:10,15.08875829,0.0001362,53.2132,284.9658,64.0473,296.066,0.0012032,0.00018932,0.0,0 STARLINK-4498,1 53434U 22097AY  23081.83622719  .00018932  00000-0  12032-2 0  9994,2 53434  53.2132 284.9658 0001362  64.0473 296.0660 15.08875829 34835,6917.771,95.435,540.578,538.694,0.0
53434.0,STARLINK-4498,PAYLOAD,2023-03-22 23:14:56,15.08871199,0.0001367,53.2134,284.3696,67.4482,292.6655,0.00069247,0.00010759,0.0,0 STARLINK-4498,1 53434U 22097AY  23081.96870441  .00010759  00000-0  69247-3 0  9995,2 53434  53.2134 284.3696 0001367  67.4482 292.6655 15.08871199 34859,6917.785,95.436,540.596,538.704,0.0
53434.0,STARLINK-4498,PAYLOAD,2023-03-23 19:54:56,15.08858309,0.0001255,53.2132,280.5033,76.4101,283.7031,0.00027778,4.138e-05,0.0,0 STARLINK-4498,1 53434U 22097AY  23082.82982044  .00004138  00000-0  27778-3 0  9991,2 53434  53.2132 280.5033 0001255  76.4101 283.7031 15.08858309 34985,6917.824,95.436,540.558,538.821,0.0
